{"type": "FeatureCollection", "features": [ {"type": "Feature", "properties": {"norad_id": 28659, "name": "DIRECTV 8", "group": "intelsat", "lat": 0.03576932409334382, "lon": 74.65605758674886, "alt_km": 35799.476629652454, "timestamp": "2025-12-09T07:41:32.870936+00:00", "meta": {"OBJECT_NAME": "DIRECTV 8", "OBJECT_ID": "2005-019A", "EPOCH": "2025-12-08T21:35:55.547808", "MEAN_MOTION": 1.00271763, "ECCENTRICITY": 0.00031931, "INCLINATION": 0.0166, "RA_OF_ASC_NODE": 3.2565, "ARG_OF_PERICENTER": 258.7514, "MEAN_ANOMALY": 20.8269, "EPHEMERIS_TYPE": 0, "CLASSIFICATION_TYPE": "U", "NORAD_CAT_ID": 28659, "ELEMENT_SET_NO": 999, "REV_AT_EPOCH": 7516, "BSTAR": 0, "MEAN_MOTION_DOT": 3e-08, "MEAN_MOTION_DDOT": 0}, "tle": {"line1": "1 28659U 05019A   25342.89994847  .00000003  00000+0  00000+0 0  9990", "line2": "2 28659   0.0166   3.2565 0003193 258.7514  20.8269  1.00271763 75167"}}, "geometry": {"type": "Point", "coordinates": [74.65605758674886, 0.03576932409334382]}}, {"type": "Feature", "properties": {"norad_id": 28702, "name": "GALAXY 28 (G-28)", "group": "intelsat", "lat": 1.147077671248364, "lon": 104.97594613315206, "alt_km": 35796.34503312183, "timestamp": "2025-12-09T07:41:32.870948+00:00", "meta": {"OBJECT_NAME": "GALAXY 28 (G-28)", "OBJECT_ID": "2005-022A", "EPOCH": "2025-12-08T21:44:32.223264", "MEAN_MOTION": 1.00271222, "ECCENTRICITY": 0.00026675, "INCLINATION": 2.8088, "RA_OF_ASC_NODE": 81.3266, "ARG_OF_PERICENTER": 178.5571, "MEAN_ANOMALY": 55.4713, "EPHEMERIS_TYPE": 0, "CLASSIFICATION_TYPE": "U", "NORAD_CAT_ID": 28702, "ELEMENT_SET_NO": 999, "REV_AT_EPOCH": 5006, "BSTAR": 0, "MEAN_MOTION_DOT": -1.86e-06, "MEAN_MOTION_DDOT": 0}, "tle": {"line1": "1 28702U 05022A   25342.90592851 -.00000186  00000+0  00000+0 0  9997", "line2": "2 28702   2.8088  81.3266 0002667 178.5571  55.4713  1.00271222 50061"}}, "geometry": {"type": "Point", "coordinates": [104.97594613315206, 1.147077671248364]}}, {"type": "Feature", "properties": {"norad_id": 29236, "name": "GALAXY 16 (G-16)", "group": "intelsat", "lat": 0.001388818971419815, "lon": 94.67192867619949, "alt_km": 35797.09724497877, "timestamp": "2025-12-09T07:41:32.870960+00:00", "meta": {"OBJECT_NAME": "GALAXY 16 (G-16)", "OBJECT_ID": "2006-023A", "EPOCH": "2025-12-08T21:41:39.997824", "MEAN_MOTION": 1.00272275, "ECCENTRICITY": 0.00028537, "INCLINATION": 0.0108, "RA_OF_ASC_NODE": 101.332, "ARG_OF_PERICENTER": 150.5213, "MEAN_ANOMALY": 52.4532, "EPHEMERIS_TYPE": 0, "CLASSIFICATION_TYPE": "U", "NORAD_CAT_ID": 29236, "ELEMENT_SET_NO": 999, "REV_AT_EPOCH": 7106, "BSTAR": 0, "MEAN_MOTION_DOT": -1.25e-06, "MEAN_MOTION_DDOT": 0}, "tle": {"line1": "1 29236U 06023A   25342.90393516 -.00000125  00000+0  00000+0 0  9992", "line2": "2 29236   0.0108 101.3320 0002853 150.5213  52.4532  1.00272275 71069"}}, "geometry": {"type": "Point", "coordinates": [94.67192867619949, 0.001388818971419815]}}, {"type": "Feature", "properties": {"norad_id": 29494, "name": "DIRECTV 9S", "group": "intelsat", "lat": 0.330283730431279, "lon": 92.47032376559939, "alt_km": 35799.54088641665, "timestamp": "2025-12-09T07:41:32.870972+00:00", "meta": {"OBJECT_NAME": "DIRECTV 9S", "OBJECT_ID": "2006-043A", "EPOCH": "2025-12-08T21:41:02.558112", "MEAN_MOTION": 1.00270662, "ECCENTRICITY": 0.00031815, "INCLINATION": 1.9303, "RA_OF_ASC_NODE": 83.2466, "ARG_OF_PERICENTER": 177.2325, "MEAN_ANOMALY": 41.4703, "EPHEMERIS_TYPE": 0, "CLASSIFICATION_TYPE": "U", "NORAD_CAT_ID": 29494, "ELEMENT_SET_NO": 999, "REV_AT_EPOCH": 4947, "BSTAR": 0, "MEAN_MOTION_DOT": -1.11e-06, "MEAN_MOTION_DDOT": 0}, "tle": {"line1": "1 29494U 06043A   25342.90350183 -.00000111  00000+0  00000+0 0  9998", "line2": "2 29494   1.9303  83.2466 0003181 177.2325  41.4703  1.00270662 49472"}}, "geometry": {"type": "Point", "coordinates": [92.47032376559939, 0.330283730431279]}}, {"type": "Feature", "properties": {"norad_id": 31307, "name": "GALAXY 17 (G-17)", "group": "intelsat", "lat": 1.1230475117306127, "lon": 108.63289519069399, "alt_km": 35804.15124654028, "timestamp": "2025-12-09T07:41:32.870984+00:00", "meta": {"OBJECT_NAME": "GALAXY 17 (G-17)", "OBJECT_ID": "2007-016B", "EPOCH": "2025-12-08T21:45:39.615264", "MEAN_MOTION": 1.00272606, "ECCENTRICITY": 0.0006102, "INCLINATION": 2.4902, "RA_OF_ASC_NODE": 82.3254, "ARG_OF_PERICENTER": 161.697, "MEAN_ANOMALY": 75.3016, "EPHEMERIS_TYPE": 0, "CLASSIFICATION_TYPE": "U", "NORAD_CAT_ID": 31307, "ELEMENT_SET_NO": 999, "REV_AT_EPOCH": 6789, "BSTAR": 0, "MEAN_MOTION_DOT": -2.05e-06, "MEAN_MOTION_DDOT": 0}, "tle": {"line1": "1 31307U 07016B   25342.90670851 -.00000205  00000+0  00000+0 0  9996", "line2": "2 31307   2.4902  82.3254 0006102 161.6970  75.3016  1.00272606 67892"}}, "geometry": {"type": "Point", "coordinates": [108.63289519069399, 1.1230475117306127]}}, {"type": "Feature", "properties": {"norad_id": 31862, "name": "DIRECTV 10", "group": "intelsat", "lat": -0.00410373968081036, "lon": 90.91303610400003, "alt_km": 35787.10019085994, "timestamp": "2025-12-09T07:41:32.870996+00:00", "meta": {"OBJECT_NAME": "DIRECTV 10", "OBJECT_ID": "2007-032A", "EPOCH": "2025-12-08T14:49:37.716960", "MEAN_MOTION": 1.00272413, "ECCENTRICITY": 4.123e-05, "INCLINATION": 0.0164, "RA_OF_ASC_NODE": 163.1982, "ARG_OF_PERICENTER": 60.4028, "MEAN_ANOMALY": 333.6449, "EPHEMERIS_TYPE": 0, "CLASSIFICATION_TYPE": "U", "NORAD_CAT_ID": 31862, "ELEMENT_SET_NO": 999, "REV_AT_EPOCH": 4368, "BSTAR": 0, "MEAN_MOTION_DOT": -1.01e-06, "MEAN_MOTION_DDOT": 0}, "tle": {"line1": "1 31862U 07032A   25342.61779765 -.00000101  00000+0  00000+0 0  9997", "line2": "2 31862   0.0164 163.1982 0000412  60.4028 333.6449  1.00272413 43683"}}, "geometry": {"type": "Point", "coordinates": [90.91303610400003, -0.00410373968081036]}}, {"type": "Feature", "properties": {"norad_id": 32253, "name": "INTELSAT 11 (IS-11)", "group": "intelsat", "lat": -0.3309601067136587, "lon": 74.43057767493165, "alt_km": 36171.2841704571, "timestamp": "2025-12-09T07:41:32.871008+00:00", "meta": {"OBJECT_NAME": "INTELSAT 11 (IS-11)", "OBJECT_ID": "2007-044B", "EPOCH": "2025-12-08T21:36:18.011808", "MEAN_MOTION": 0.99047748, "ECCENTRICITY": 0.00091328, "INCLINATION": 3.0702, "RA_OF_ASC_NODE": 81.0168, "ARG_OF_PERICENTER": 164.3323, "MEAN_ANOMALY": 39.2157, "EPHEMERIS_TYPE": 0, "CLASSIFICATION_TYPE": "U", "NORAD_CAT_ID": 32253, "ELEMENT_SET_NO": 999, "REV_AT_EPOCH": 6656, "BSTAR": 0, "MEAN_MOTION_DOT": 7e-07, "MEAN_MOTION_DDOT": 0}, "tle": {"line1": "1 32253U 07044B   25342.90020847  .00000070  00000+0  00000+0 0  9991", "line2": "2 32253   3.0702  81.0168 0009132 164.3323  39.2157  0.99047748 66568"}}, "geometry": {"type": "Point", "coordinates": [74.43057767493165, -0.3309601067136587]}}, {"type": "Feature", "properties": {"norad_id": 32388, "name": "HORIZONS-2", "group": "intelsat", "lat": 1.283542127520913, "lon": 119.86849009289142, "alt_km": 35804.658566923266, "timestamp": "2025-12-09T07:41:32.871020+00:00", "meta": {"OBJECT_NAME": "HORIZONS-2", "OBJECT_ID": "2007-063B", "EPOCH": "2025-12-08T21:48:46.816416", "MEAN_MOTION": 1.00270622, "ECCENTRICITY": 0.00050387, "INCLINATION": 2.1115, "RA_OF_ASC_NODE": 82.9985, "ARG_OF_PERICENTER": 186.4621, "MEAN_ANOMALY": 61.8616, "EPHEMERIS_TYPE": 0, "CLASSIFICATION_TYPE": "U", "NORAD_CAT_ID": 32388, "ELEMENT_SET_NO": 999, "REV_AT_EPOCH": 6590, "BSTAR": 0, "MEAN_MOTION_DOT": -2.52e-06, "MEAN_MOTION_DDOT": 0}, "tle": {"line1": "1 32388U 07063B   25342.90887519 -.00000252  00000+0  00000+0 0  9991", "line2": "2 32388   2.1115  82.9985 0005038 186.4621  61.8616  1.00270622 65909"}}, "geometry": {"type": "Point", "coordinates": [119.86849009289142, 1.283542127520913]}}, {"type": "Feature", "properties": {"norad_id": 32729, "name": "DIRECTV 11", "group": "intelsat", "lat": 0.004838793782572635, "lon": 94.50239050942353, "alt_km": 35786.56135177844, "timestamp": "2025-12-09T07:41:32.871032+00:00", "meta": {"OBJECT_NAME": "DIRECTV 11", "OBJECT_ID": "2008-013A", "EPOCH": "2025-12-08T14:50:30.133248", "MEAN_MOTION": 1.00272882, "ECCENTRICITY": 5.266e-05, "INCLINATION": 0.0228, "RA_OF_ASC_NODE": 202.5194, "ARG_OF_PERICENTER": 2.0786, "MEAN_ANOMALY": 356.4573, "EPHEMERIS_TYPE": 0, "CLASSIFICATION_TYPE": "U", "NORAD_CAT_ID": 32729, "ELEMENT_SET_NO": 999, "REV_AT_EPOCH": 4368, "BSTAR": 0, "MEAN_MOTION_DOT": -1.24e-06, "MEAN_MOTION_DDOT": 0}, "tle": {"line1": "1 32729U 08013A   25342.61840432 -.00000124  00000+0  00000+0 0  9995", "line2": "2 32729   0.0228 202.5194 0000526   2.0786 356.4573  1.00272882 43680"}}, "geometry": {"type": "Point", "coordinates": [94.50239050942353, 0.004838793782572635]}}, {"type": "Feature", "properties": {"norad_id": 32951, "name": "GALAXY 18 (G-18)", "group": "intelsat", "lat": 0.02392266351921415, "lon": 70.69408031283507, "alt_km": 35799.2307992159, "timestamp": "2025-12-09T07:41:32.871044+00:00", "meta": {"OBJECT_NAME": "GALAXY 18 (G-18)", "OBJECT_ID": "2008-024A", "EPOCH": "2025-12-08T21:34:48.154944", "MEAN_MOTION": 1.00272677, "ECCENTRICITY": 0.00032149, "INCLINATION": 0.0142, "RA_OF_ASC_NODE": 291.9587, "ARG_OF_PERICENTER": 328.1952, "MEAN_ANOMALY": 18.4346, "EPHEMERIS_TYPE": 0, "CLASSIFICATION_TYPE": "U", "NORAD_CAT_ID": 32951, "ELEMENT_SET_NO": 999, "REV_AT_EPOCH": 4394, "BSTAR": 0, "MEAN_MOTION_DOT": 2.7e-07, "MEAN_MOTION_DDOT": 0}, "tle": {"line1": "1 32951U 08024A   25342.89916846  .00000027  00000+0  00000+0 0  9998", "line2": "2 32951   0.0142 291.9587 0003214 328.1952  18.4346  1.00272677 43948"}}, "geometry": {"type": "Point", "coordinates": [70.69408031283507, 0.02392266351921415]}}]}